CO3D 3                  
1 64900U 25156B   26068.86105183  .00002935  00000+0  13866-3 0  9997
2 64900  97.4328 148.9798 0001530 138.8545 221.2806 15.20200878 34442
LEMUR-2-LAILA           
1 66776U 25276DQ  26068.72945049  .00007609  00000+0  35559-3 0  9997
2 66776  97.4243 144.1425 0002283 132.0154 228.1276 15.20071210 15334
